STARLINK-31657          
1 59487U 24071D   26068.08129746 -.00004398  00000+0 -15047-3 0  9991
2 59487  43.0031 343.0916 0001439 283.5557  76.5134 15.27566210108116
COSMOS 2588             
1 64095U 25109A   26068.81179522  .00009169  00000+0  32611-3 0  9998
2 64095  72.9704  73.5401 0005019 308.6780  51.3966 15.29122656 44425
